     2.11           N: GPS NAV DATA                         RINEX VERSION / TYPE
teqc  2018Dec12     gpsops              20220527 01:03:56UTCPGM / RUN BY / DATE
Linux 2.6.32-573.12.1.x86_64|x86_64|gcc -static|Linux 64|=+ COMMENT
CHPI                                    MARKER NAME         COMMENT
41609M003                               MARKER NUMBER       COMMENT
4164613.9484 -4162456.9866 -2445028.7316                    COMMENT
This data is provided as a public service by NASA/JPL.      COMMENT
No warranty is expressed or implied regarding suitability   COMMENT
for use.  For further information, contact:                 COMMENT
ggnops at jpl dot nasa dot gov                              COMMENT
                                                            END OF HEADER
28 22  5 26 20  0  0.0 3.506075590849D-04-7.389644451905D-12 0.000000000000D+00
    1.000000000000D+01 7.881250000000D+01 4.562690054355D-09-1.138338455452D+00
    4.315748810768D-06 1.655955542810D-02 4.805624485016D-06 5.153679115295D+03
    4.176000000000D+05-2.626329660416D-07 6.032653087187D-01 1.061707735062D-07
    9.685141926522D-01 2.988750000000D+02-1.278325577997D+00-8.434994208509D-09
    4.457328522767D-10 1.000000000000D+00 2.211000000000D+03 0.000000000000D+00
    2.000000000000D+00 6.300000000000D+01-1.117587089539D-08 1.000000000000D+01
    4.104180000000D+05 4.000000000000D+00
 4 22  5 26 20  0  0.0-1.634438522160D-04 3.751665644813D-12 0.000000000000D+00
    1.970000000000D+02-4.150000000000D+01 4.674480425158D-09-2.063974187118D+00
   -2.181157469749D-06 1.831593224779D-03 6.303191184998D-06 5.153608232498D+03
    4.176000000000D+05-5.215406417847D-08-1.549657580407D+00 1.862645149231D-09
    9.609127064655D-01 2.580000000000D+02-2.964718628065D+00-8.119266771480D-09
   -3.685867816904D-10 1.000000000000D+00 2.211000000000D+03 0.000000000000D+00
    2.000000000000D+00 0.000000000000D+00-4.656612873077D-09 9.650000000000D+02
    4.104180000000D+05 4.000000000000D+00
 8 22  5 26 20  0  0.0-6.959447637200D-05-1.477928890381D-12 0.000000000000D+00
    8.100000000000D+01-5.609375000000D+01 4.768412909252D-09-1.634117821532D+00
   -3.216788172722D-06 7.440609508194D-03 3.172084689140D-06 5.153765213013D+03
    4.176000000000D+05 5.215406417847D-08 1.536142462934D+00-1.303851604462D-07
    9.632929663443D-01 3.179375000000D+02 1.696670400675D-01-8.383563494785D-09
   -3.428714248282D-11 1.000000000000D+00 2.211000000000D+03 0.000000000000D+00
    2.800000000000D+00 0.000000000000D+00 5.122274160385D-09 8.100000000000D+01
    4.104180000000D+05 4.000000000000D+00
 5 22  5 26 20  0  0.0-8.327420800924D-05-1.364242052659D-12 0.000000000000D+00
    7.000000000000D+01 2.846875000000D+01 4.735554397706D-09-1.158086658706D+00
    1.477077603340D-06 5.997511558235D-03 7.025897502899D-06 5.153721879959D+03
    4.176000000000D+05 9.126961231232D-08-2.672934649086D+00 1.303851604462D-07
    9.610327418198D-01 2.442500000000D+02 1.026116360882D+00-8.157839806773D-09
    3.096557555480D-10 1.000000000000D+00 2.211000000000D+03 0.000000000000D+00
    2.000000000000D+00 0.000000000000D+00-1.117587089539D-08 7.000000000000D+01
    4.104180000000D+05 4.000000000000D+00
17 22  5 26 20  0  0.0 6.174831651151D-04 4.661160346586D-12 0.000000000000D+00
    1.400000000000D+01-6.256250000000D+01 4.424470011221D-09-1.633676874616D+00
   -2.861022949219D-06 1.351565483492D-02 4.565343260765D-06 5.153553838730D+03
    4.176000000000D+05-5.215406417847D-08 1.619621121138D+00 3.594905138016D-07
    9.785161050434D-01 3.006562500000D+02-1.493072848294D+00-8.093908572352D-09
   -1.960795960737D-10 1.000000000000D+00 2.211000000000D+03 0.000000000000D+00
    2.000000000000D+00 0.000000000000D+00-1.117587089539D-08 1.400000000000D+01
    4.104180000000D+05 4.000000000000D+00
13 22  5 26 20  0  0.0 3.186580725014D-04 6.821210263297D-12 0.000000000000D+00
    1.800000000000D+01-4.025000000000D+01 4.389111395536D-09-2.046943323474D+00
   -2.032145857811D-06 5.932678002864D-03 7.292255759239D-06 5.153670736313D+03
    4.176000000000D+05 4.842877388000D-08-1.448918690559D+00-6.705522537231D-08
    9.682935685138D-01 2.439062500000D+02 9.188805860133D-01-7.863184676061D-09
   -4.653765276575D-10 1.000000000000D+00 2.211000000000D+03 0.000000000000D+00
    2.000000000000D+00 0.000000000000D+00-1.164153218269D-08 1.800000000000D+01
    4.111980000000D+05 4.000000000000D+00
19 22  5 26 20  0  0.0 1.624971628189D-04 5.002220859751D-12 0.000000000000D+00
    2.000000000000D+01-6.931250000000D+01 4.484829668300D-09 7.243864817189D-01
   -3.730878233910D-06 9.243217529729D-03 5.027279257774D-06 5.153698123932D+03
    4.176000000000D+05-8.009374141693D-08 1.664435078333D+00-1.396983861923D-07
    9.773494585965D-01 2.929062500000D+02 2.069348500488D+00-8.258201130082D-09
   -1.992940156814D-10 1.000000000000D+00 2.211000000000D+03 0.000000000000D+00
    2.000000000000D+00 0.000000000000D+00-1.583248376846D-08 2.000000000000D+01
    4.120680000000D+05 4.000000000000D+00
15 22  5 26 20  0  0.0-5.815271288157D-05 2.955857780762D-12 0.000000000000D+00
    5.400000000000D+01-3.815625000000D+01 5.418797143223D-09-2.590850363934D+00
   -1.944601535797D-06 1.405814790633D-02 5.222856998444D-06 5.153786018372D+03
    4.176000000000D+05 1.620501279831D-07-1.712197661025D+00-3.539025783539D-08
    9.299144364289D-01 2.605625000000D+02 1.095388255889D+00-8.326418257313D-09
   -2.582250418238D-10 1.000000000000D+00 2.211000000000D+03 0.000000000000D+00
    2.000000000000D+00 0.000000000000D+00-1.071020960808D-08 5.400000000000D+01
    4.164780000000D+05 4.000000000000D+00
28 22  5 26 22  0  0.0 3.505540080369D-04-7.389644451905D-12 0.000000000000D+00
    1.100000000000D+01 8.000000000000D+01 4.442685055665D-09-8.813933819150D-02
    4.110857844353D-06 1.656054565683D-02 4.922971129417D-06 5.153681081772D+03
    4.248000000000D+05-2.738088369370D-07 6.032048799616D-01-1.359730958939D-07
    9.685172442993D-01 2.907500000000D+02-1.278347666597D+00-8.449994833345D-09
    3.339424814733D-10 1.000000000000D+00 2.211000000000D+03 0.000000000000D+00
    2.000000000000D+00 6.300000000000D+01-1.117587089539D-08 1.100000000000D+01
    4.176180000000D+05 4.000000000000D+00
17 22  5 26 22  0  0.0 6.175166927278D-04 4.661160346586D-12 0.000000000000D+00
    2.100000000000D+01-5.668750000000D+01 4.408397913182D-09-5.833344601417D-01
   -3.103166818619D-06 1.351598021574D-02 4.502013325691D-06 5.153556182861D+03
    4.248000000000D+05-1.955777406693D-07 1.619560576810D+00 1.303851604462D-08
    9.785138345946D-01 3.080937500000D+02-1.493162213571D+00-8.412136113520D-09
   -7.964617472573D-11 1.000000000000D+00 2.211000000000D+03 0.000000000000D+00
    2.000000000000D+00 0.000000000000D+00-1.117587089539D-08 2.100000000000D+01
    4.176180000000D+05 4.000000000000D+00
14 22  5 26 22  0  0.0-1.098592765629D-04-1.364242052659D-12 0.000000000000D+00
    0.000000000000D+00 9.096875000000D+01 4.690552523197D-09 2.220020032060D+00
    4.716217517853D-06 1.918687834404D-03 4.813075065613D-06 5.153663576126D+03
    4.248000000000D+05-4.656612873077D-08 5.483390795179D-01 5.215406417847D-08
    9.528848615821D-01 2.791875000000D+02 3.112839180144D+00-8.325346784111D-09
    3.246563803842D-10 1.000000000000D+00 2.211000000000D+03 0.000000000000D+00
    2.000000000000D+00 0.000000000000D+00-7.916241884232D-09 5.120000000000D+02
    4.176180000000D+05 4.000000000000D+00
30 22  5 26 22  0  0.0-5.293386057019D-04-1.364242052659D-12 0.000000000000D+00
    4.500000000000D+01 2.715625000000D+01 4.703053043894D-09 2.835197477469D+00
    1.337379217148D-06 5.857954733074D-03 1.126341521740D-05 5.153773008347D+03
    4.248000000000D+05-3.166496753693D-08-5.199028457089D-01-6.332993507385D-08
    9.361120800942D-01 1.490000000000D+02-2.686976845702D+00-7.998547457321D-09
   -2.350097891010D-10 1.000000000000D+00 2.211000000000D+03 0.000000000000D+00
    2.000000000000D+00 0.000000000000D+00 3.725290298462D-09 4.500000000000D+01
    4.176180000000D+05 4.000000000000D+00
13 22  5 26 22  0  0.0 3.187074325979D-04 6.821210263297D-12 0.000000000000D+00
    1.900000000000D+01-4.056250000000D+01 4.553046795532D-09-9.967176483994D-01
   -2.244487404823D-06 5.932974978350D-03 6.960704922676D-06 5.153671247482D+03
    4.248000000000D+05 6.705522537231D-08-1.448975172363D+00 1.750886440277D-07
    9.682890188385D-01 2.486562500000D+02 9.188369691107D-01-8.072836266034D-09
   -5.721666901821D-10 1.000000000000D+00 2.211000000000D+03 0.000000000000D+00
    2.000000000000D+00 0.000000000000D+00-1.164153218269D-08 1.900000000000D+01
    4.176180000000D+05 4.000000000000D+00
19 22  5 26 22  0  0.0 1.625330187380D-04 5.002220859751D-12 0.000000000000D+00
    5.100000000000D+01-6.456250000000D+01 4.299821961987D-09 1.774273385928D+00
   -3.470107913017D-06 9.244236163795D-03 3.974884748459D-06 5.153703338623D+03
    4.248000000000D+05 1.210719347000D-07 1.664376707902D+00-2.793967723846D-08
    9.773489173168D-01 3.119375000000D+02 2.069624668700D+00-8.037120492614D-09
   -2.292952653539D-10 1.000000000000D+00 2.211000000000D+03 0.000000000000D+00
    2.000000000000D+00 0.000000000000D+00-1.583248376846D-08 5.100000000000D+01
    4.176180000000D+05 4.000000000000D+00
 7 22  5 26 22  0  0.0 3.222073428333D-04 0.000000000000D+00 0.000000000000D+00
    7.000000000000D+01 1.868750000000D+01 4.285892810353D-09 2.858575641298D+00
    8.810311555862D-07 1.614315994084D-02 1.173652708530D-05 5.153668699265D+03
    4.248000000000D+05 4.842877388000D-08-5.315337554173D-01-1.769512891769D-07
    9.509569491397D-01 1.449375000000D+02-2.266337572068D+00-7.602816687832D-09
   -2.160804291886D-10 1.000000000000D+00 2.211000000000D+03 0.000000000000D+00
    2.800000000000D+00 0.000000000000D+00-1.117587089539D-08 7.000000000000D+01
    4.176180000000D+05 4.000000000000D+00
